*******************************************************************************
 Revised: Dec 30, 2013             134340 Pluto                             999
 
 Fit to all available observations (PLU043/DE431)

 ICRF/J2000.0 helio. ecliptic osc. elements (AU, DAYS, DEG, period=Julian yrs):

 EPOCH= 2456656.5 ! 2013-Dec-30.00 (CT)
  EC= 2.479750960904014E-01 QR= 2.950229731448114E+01 IN= 1.733434183305855E+01
  OM= 1.101908708982876E+02 W = 1.121892886119843E+02 Tp=  2447571.800166774075
  A = 3.923047915182824E+01 AD= 4.895866098917534E+01 PR= 8.974987331741650E+04

 PHYSICAL DATA (updated 2013-Nov-19, Mc= Charon mass, radius is IAU 2009):
  Mass Pluto (10^22 kg) = 1.307+-0.018    Density Pluto:
  GM (planet) km^3/s^2  = 872.4             (R = 1195 km)       = 1.83 g/cm^3
  Mass ratio (Mc/Mp)    = 0.117           Radius of Pluto, Rp   = 1195 km
  Surface gravity       = 61.1 cm/s^2     Geometric albedo      = 0.3 
  Sidereal orbit period = 249.58932 yr    Mean orbit velocity   = 4.656 km/s
  Escape velocity (km/s)= 1.21
*******************************************************************************
 
 
*******************************************************************************
Ephemeris / WWW_USER Sun Jan 18 02:29:51 2015 Pasadena, USA      / Horizons    
*******************************************************************************
Target body name: Pluto (999)                     {source: PLU043}
Center body name: Solar System Barycenter (0)     {source: DE-0431LE-0431}
Center-site name: BODY CENTER
*******************************************************************************
Start time      : A.D. 2015-Jan-18 00:00:00.0000 CT 
Stop  time      : A.D. 2015-Feb-17 00:00:00.0000 CT 
Step-size       : 1440 minutes
*******************************************************************************
Center geodetic : 0.00000000,0.00000000,0.0000000 {E-lon(deg),Lat(deg),Alt(km)}
Center cylindric: 0.00000000,0.00000000,0.0000000 {E-lon(deg),Dxy(km),Dz(km)}
Center radii    : (undefined)                                                  
Output units    : AU-D                                                         
Output format   : 02
Reference frame : ICRF/J2000.0                                                 
Output type     : LT+S CORRECTED cartesian states
Coordinate systm: Ecliptic and Mean Equinox of Reference Epoch                 
*******************************************************************************
JDCT ,   , X, Y, Z, VX, VY, VZ,
*******************************************************************************
$$SOE
2457040.500000000, A.D. 2015-Jan-18 00:00:00.0000,  7.453060957291160E+00, -3.191868512209607E+01,  1.259619224615070E+00,  3.109684526995636E-03,  6.345743444144480E-05, -9.099546568174587E-04,
2457041.500000000, A.D. 2015-Jan-19 00:00:00.0000,  7.456170312177685E+00, -3.191861821996302E+01,  1.258715081111917E+00,  3.110655552731273E-03,  7.148357285618913E-05, -8.993228987178985E-04,
2457042.500000000, A.D. 2015-Jan-20 00:00:00.0000,  7.459284856212297E+00, -3.191854139217729E+01,  1.257817255643913E+00,  3.119201803633782E-03,  8.172533102203843E-05, -8.983565905600049E-04,
2457043.500000000, A.D. 2015-Jan-21 00:00:00.0000,  7.462408657872928E+00, -3.191845707223101E+01,  1.256914744085488E+00,  3.127642327002004E-03,  8.528325662105938E-05, -9.079283914276911E-04,
2457044.500000000, A.D. 2015-Jan-22 00:00:00.0000,  7.465537469510735E+00, -3.191837413957339E+01,  1.256000714054742E+00,  3.128390377951144E-03,  7.922251786366168E-05, -9.195065580959958E-04,
2457045.500000000, A.D. 2015-Jan-23 00:00:00.0000,  7.468662518617558E+00, -3.191829999563177E+01,  1.255078600897458E+00,  3.120724395380210E-03,  6.919058630191263E-05, -9.227718417727357E-04,
2457046.500000000, A.D. 2015-Jan-24 00:00:00.0000,  7.471778334507312E+00, -3.191823396209286E+01,  1.254159039984775E+00,  3.111427176090478E-03,  6.437484619340052E-05, -9.148222519735527E-04,
2457047.500000000, A.D. 2015-Jan-25 00:00:00.0000,  7.474887626511398E+00, -3.191816788753860E+01,  1.253250380311857E+00,  3.108735791580433E-03,  6.931008314098139E-05, -9.027577038593076E-04,
2457048.500000000, A.D. 2015-Jan-26 00:00:00.0000,  7.477998868132548E+00, -3.191809341719128E+01,  1.252351237773792E+00,  3.114996682516516E-03,  7.983412664772064E-05, -8.973502885753390E-04,
2457049.500000000, A.D. 2015-Jan-27 00:00:00.0000,  7.481118738941050E+00, -3.191800944675003E+01,  1.251451727120728E+00,  3.124568756305109E-03,  8.679634702330629E-05, -9.034354736191182E-04,
2457050.500000000, A.D. 2015-Jan-28 00:00:00.0000,  7.484246163313760E+00, -3.191792310967857E+01,  1.250542281365582E+00,  3.128854992714128E-03,  8.422344453177047E-05, -9.155929324514147E-04,
2457051.500000000, A.D. 2015-Jan-29 00:00:00.0000,  7.487373270343224E+00, -3.191784341140419E+01,  1.249622189153948E+00,  3.123976446700847E-03,  7.465134006261408E-05, -9.229850579373961E-04,
2457052.500000000, A.D. 2015-Jan-30 00:00:00.0000,  7.490492417635467E+00, -3.191777319473577E+01,  1.248700226934200E+00,  3.114230194206204E-03,  6.685812451297295E-05, -9.190285260482005E-04,
2457053.500000000, A.D. 2015-Jan-31 00:00:00.0000,  7.493603007243466E+00, -3.191770660624610E+01,  1.247786828770157E+00,  3.108253432703047E-03,  6.803362757640480E-05, -9.072621470774823E-04,
2457054.500000000, A.D. 2015-Feb-01 00:00:00.0000,  7.496712018594094E+00, -3.191763431698002E+01,  1.246884780801413E+00,  3.111322357186545E-03,  7.736940717857784E-05, -8.981906073904751E-04,
2457055.500000000, A.D. 2015-Feb-02 00:00:00.0000,  7.499827784317665E+00, -3.191755184353537E+01,  1.245986733977620E+00,  3.120644312772073E-03,  8.677600902187382E-05, -8.999179134986448E-04,
2457056.500000000, A.D. 2015-Feb-03 00:00:00.0000,  7.502952555128846E+00, -3.191746355028431E+01,  1.245081758760600E+00,  3.127845403547466E-03,  8.809862796737666E-05, -9.109128273843536E-04,
2457057.500000000, A.D. 2015-Feb-04 00:00:00.0000,  7.506080490582640E+00, -3.191737875541934E+01,  1.244165098568750E+00,  3.126444937405918E-03,  8.039709508088320E-05, -9.213738670308164E-04,
2457058.500000000, A.D. 2015-Feb-05 00:00:00.0000,  7.509202871834670E+00, -3.191730341584431E+01,  1.243242412525639E+00,  3.117637581406308E-03,  7.078183037617967E-05, -9.219789293162133E-04,
2457059.500000000, A.D. 2015-Feb-06 00:00:00.0000,  7.512315879301886E+00, -3.191723481498074E+01,  1.242324724538797E+00,  3.109223464651195E-03,  6.806794912724782E-05, -9.121986351813788E-04,
2457060.500000000, A.D. 2015-Feb-07 00:00:00.0000,  7.515423998304532E+00, -3.191716398679685E+01,  1.241418591107635E+00,  3.108651849166586E-03,  7.491562405146072E-05, -9.007654282614121E-04,
2457061.500000000, A.D. 2015-Feb-08 00:00:00.0000,  7.518536019574196E+00, -3.191708371216642E+01,  1.240520252604582E+00,  3.116377964809056E-03,  8.545611896351615E-05, -8.978887390242777E-04,
2457062.500000000, A.D. 2015-Feb-09 00:00:00.0000,  7.521657197225389E+00, -3.191699496052217E+01,  1.239618984553151E+00,  3.125452578804395E-03,  9.052340175012124E-05, -9.061458478172586E-04,
2457063.500000000, A.D. 2015-Feb-10 00:00:00.0000,  7.524784559147885E+00, -3.191690602646387E+01,  1.238706666828461E+00,  3.127722421191914E-03,  8.583526007989475E-05, -9.181778888573584E-04,
2457064.500000000, A.D. 2015-Feb-11 00:00:00.0000,  7.527909559867527E+00, -3.191682512748874E+01,  1.237785029362523E+00,  3.121107490849729E-03,  7.581451500933225E-05, -9.232595926042779E-04,
2457065.500000000, A.D. 2015-Feb-12 00:00:00.0000,  7.531025705344642E+00, -3.191675307345589E+01,  1.236864105985172E+00,  3.111453183106119E-03,  6.963880807666167E-05, -9.168686956149770E-04,
2457066.500000000, A.D. 2015-Feb-13 00:00:00.0000,  7.534134344154295E+00, -3.191668254618597E+01,  1.235953283666020E+00,  3.107314370180513E-03,  7.305537662493358E-05, -9.047146358281071E-04,
2457067.500000000, A.D. 2015-Feb-14 00:00:00.0000,  7.537243464941190E+00, -3.191660462609073E+01,  1.235052930564875E+00,  3.112327973979722E-03,  8.325668694196629E-05, -8.976483955661967E-04,
2457068.500000000, A.D. 2015-Feb-15 00:00:00.0000,  7.540360571434986E+00, -3.191651674906421E+01,  1.234154065087561E+00,  3.121965799552013E-03,  9.138035320802900E-05, -9.019851941069474E-04,
2457069.500000000, A.D. 2015-Feb-16 00:00:00.0000,  7.543485986172634E+00, -3.191642499646150E+01,  1.233246368125800E+00,  3.127571799708044E-03,  9.041642672158521E-05, -9.138647472022300E-04,
2457070.500000000, A.D. 2015-Feb-17 00:00:00.0000,  7.546612562492978E+00, -3.191633866831152E+01,  1.232327391783000E+00,  3.124088708048784E-03,  8.146493884625717E-05, -9.226966422629499E-04,
$$EOE
*******************************************************************************
Coordinate system description:

  Ecliptic and Mean Equinox of Reference Epoch

    Reference epoch: J2000.0
    xy-plane: plane of the Earth's orbit at the reference epoch
    x-axis  : out along ascending node of instantaneous plane of the Earth's
              orbit and the Earth's mean equator at the reference epoch
    z-axis  : perpendicular to the xy-plane in the directional (+ or -) sense
              of Earth's north pole at the reference epoch.

Symbol meaning [1 au=149597870.700 km, 1 day=86400.0 s]:

    JDCT     Epoch Julian Date, Coordinate Time
      X      x-component of position vector (AU)                               
      Y      y-component of position vector (AU)                               
      Z      z-component of position vector (AU)                               
      VX     x-component of velocity vector (AU/day)                           
      VY     y-component of velocity vector (AU/day)                           
      VZ     z-component of velocity vector (AU/day)                           

States have been corrected for Newtonian light-time and relativistic stellar ab

 Computations by ...
     Solar System Dynamics Group, Horizons On-Line Ephemeris System
     4800 Oak Grove Drive, Jet Propulsion Laboratory
     Pasadena, CA  91109   USA
     Information: http://ssd.jpl.nasa.gov/
     Connect    : telnet://ssd.jpl.nasa.gov:6775  (via browser)
                  telnet ssd.jpl.nasa.gov 6775    (via command-line)
     Author     : Jon.Giorgini@jpl.nasa.gov
*******************************************************************************
